*******************************************************************************
Ephemeris / WWW_USER Fri Mar  7 10:23:24 2025 Pasadena, USA      / Horizons    
*******************************************************************************
Target body name: (2018 RC)                       {source: JPL#21}
Center body name: Earth (399)                     {source: DE441}
Center-site name: Mauna Kea
*******************************************************************************
Start time      : A.D. 2018-Sep-25 04:25:00.0000 UT      
Stop  time      : A.D. 2018-Sep-25 16:02:00.0000 UT      
Step-size       : 1 minutes
*******************************************************************************
Target pole/equ : undefined
Target radii    : undefined                                                    
Center geodetic : 204.5278, 19.8260847, 4.21024   {E-lon(deg),Lat(deg),Alt(km)}
Center cylindric: 204.5278, 6006.35451, 2151.0229 {E-lon(deg),Dxy(km),Dz(km)}
Center pole/equ : ITRF93                          {East-longitude positive}
Center radii    : 6378.137, 6378.137, 6356.752 km {Equator_a, b, pole_c}       
Target primary  : Sun
Vis. interferer : MOON (R_eq= 1737.400) km        {source: DE441}
Rel. light bend : Sun                             {source: DE441}
Rel. lght bnd GM: 1.3271E+11 km^3/s^2                                          
Small-body perts: Yes                             {source: SB441-N16}
Atmos refraction: NO (AIRLESS)
RA format       : HMS
Time format     : CAL 
Calendar mode   : Mixed Julian/Gregorian
RTS-only print  : NO       
EOP file        : eop.250306.p250602                                           
EOP coverage    : DATA-BASED 1962-JAN-20 TO 2025-MAR-06. PREDICTS-> 2025-JUN-01
Units conversion: 1 au= 149597870.700 km, c= 299792.458 km/s, 1 day= 86400.0 s 
Table cut-offs 1: Elevation (-90.0deg=NO ),Airmass (>38.000=NO), Daylight (YES)
Table cut-offs 2: Solar elongation (  0.0,180.0=NO ),Local Hour Angle( 0.0=NO )
Table cut-offs 3: RA/DEC angular rate (     0.0=NO )                           
*******************************************************************************
Initial IAU76/J2000 heliocentric ecliptic osculating elements (au, days, deg.):
  EPOCH=  2458369.5 ! 2018-Sep-08.00 (TDB)         Residual RMS= .84866        
   EC= .2426621660028976   QR= .647471518312811    TP= 2458473.8617576878      
   OM= 346.8893436915528   W=  145.8737085184167   IN= 1.612045057594462       
  Equivalent ICRF heliocentric cartesian coordinates (au, au/d):
   X= 9.781363708094483E-01  Y=-2.377942828764822E-01  Z=-1.040448782093900E-01
  VX= 1.501011538102481E-03 VY= 1.393070215815854E-02 VZ= 6.509326736836346E-03
Asteroid physical parameters (km, seconds, rotational period in hours):        
   GM= n.a.                RAD= n.a.               ROTPER= .16548              
   H= 24.93                G= .150                 B-V= n.a.                   
                           ALBEDO= n.a.            STYP= n.a.                  
*******************************************************************************
 Date__(UT)__HR:MN     R.A._________(ICRF)_________DEC
******************************************************
$$SOE
 2018-Sep-25 06:28  m  13 19 13.649472 +01 15 01.28740
 2018-Sep-25 06:29  m  13 19 13.628232 +01 15 01.43537
 2018-Sep-25 06:30  m  13 19 13.607211 +01 15 01.58334
 2018-Sep-25 06:31  m  13 19 13.586409 +01 15 01.73130
 2018-Sep-25 06:32  m  13 19 13.565826 +01 15 01.87927
 2018-Sep-25 06:33  m  13 19 13.545462 +01 15 02.02724
 2018-Sep-25 06:34  m  13 19 13.525315 +01 15 02.17520
 2018-Sep-25 06:35  m  13 19 13.505387 +01 15 02.32317
 2018-Sep-25 06:36  m  13 19 13.485676 +01 15 02.47114
 2018-Sep-25 06:37  m  13 19 13.466182 +01 15 02.61911
 2018-Sep-25 06:38  m  13 19 13.446905 +01 15 02.76708
 2018-Sep-25 06:39  m  13 19 13.427844 +01 15 02.91506
 2018-Sep-25 06:40  m  13 19 13.409000 +01 15 03.06303
 2018-Sep-25 06:41  m  13 19 13.390371 +01 15 03.21101
 2018-Sep-25 06:42  m  13 19 13.371958 +01 15 03.35899
 2018-Sep-25 06:43  m  13 19 13.353760 +01 15 03.50697
 2018-Sep-25 06:44  m  13 19 13.335777 +01 15 03.65496
 2018-Sep-25 06:45  m  13 19 13.318008 +01 15 03.80295
 2018-Sep-25 06:46  m  13 19 13.300453 +01 15 03.95094
 2018-Sep-25 06:47  m  13 19 13.283112 +01 15 04.09894
 2018-Sep-25 06:48  m  13 19 13.265984 +01 15 04.24694
 2018-Sep-25 06:49  m  13 19 13.249069 +01 15 04.39495
 2018-Sep-25 06:50  m  13 19 13.232367 +01 15 04.54296
 2018-Sep-25 06:51  m  13 19 13.215876 +01 15 04.69097
 2018-Sep-25 06:52  m  13 19 13.199597 +01 15 04.83899
 2018-Sep-25 06:53  m  13 19 13.183530 +01 15 04.98702
 2018-Sep-25 06:54  m  13 19 13.167674 +01 15 05.13506
 2018-Sep-25 06:55  m  13 19 13.152028 +01 15 05.28310
 2018-Sep-25 06:56  m  13 19 13.136592 +01 15 05.43114
 2018-Sep-25 06:57  m  13 19 13.121366 +01 15 05.57920
 2018-Sep-25 06:58  m  13 19 13.106349 +01 15 05.72726
 2018-Sep-25 06:59  m  13 19 13.091541 +01 15 05.87532
 2018-Sep-25 07:00  m  13 19 13.076942 +01 15 06.02340
 2018-Sep-25 07:01  m  13 19 13.062550 +01 15 06.17148
 2018-Sep-25 07:02  m  13 19 13.048366 +01 15 06.31958
 2018-Sep-25 07:03  m  13 19 13.034390 +01 15 06.46768
 2018-Sep-25 07:04  m  13 19 13.020620 +01 15 06.61579
 2018-Sep-25 07:05  m  13 19 13.007056 +01 15 06.76391
 2018-Sep-25 07:06  m  13 19 12.993698 +01 15 06.91203
 2018-Sep-25 07:07  m  13 19 12.980546 +01 15 07.06017
 2018-Sep-25 07:08  m  13 19 12.967599 +01 15 07.20832
 2018-Sep-25 07:09  m  13 19 12.954856 +01 15 07.35648
 2018-Sep-25 07:10  m  13 19 12.942317 +01 15 07.50465
 2018-Sep-25 07:11  m  13 19 12.929981 +01 15 07.65283
 2018-Sep-25 07:12  m  13 19 12.917849 +01 15 07.80102
 2018-Sep-25 07:13  m  13 19 12.905919 +01 15 07.94922
 2018-Sep-25 07:14  m  13 19 12.894192 +01 15 08.09743
 2018-Sep-25 07:15  m  13 19 12.882666 +01 15 08.24566
 2018-Sep-25 07:16  m  13 19 12.871341 +01 15 08.39390
 2018-Sep-25 07:17  m  13 19 12.860217 +01 15 08.54215
 2018-Sep-25 07:18  m  13 19 12.849293 +01 15 08.69041
 2018-Sep-25 07:19  m  13 19 12.838569 +01 15 08.83869
 2018-Sep-25 07:20  m  13 19 12.828044 +01 15 08.98697
 2018-Sep-25 07:21  m  13 19 12.817718 +01 15 09.13528
 2018-Sep-25 07:22  m  13 19 12.807590 +01 15 09.28359
 2018-Sep-25 07:23  m  13 19 12.797659 +01 15 09.43192
 2018-Sep-25 07:24  m  13 19 12.787926 +01 15 09.58027
 2018-Sep-25 07:25  m  13 19 12.778389 +01 15 09.72863
 2018-Sep-25 07:26  m  13 19 12.769049 +01 15 09.87700
 2018-Sep-25 07:27  m  13 19 12.759904 +01 15 10.02539
 2018-Sep-25 07:28  m  13 19 12.750954 +01 15 10.17380
 2018-Sep-25 07:29  m  13 19 12.742199 +01 15 10.32222
 2018-Sep-25 07:30  m  13 19 12.733638 +01 15 10.47066
 2018-Sep-25 07:31  m  13 19 12.725270 +01 15 10.61911
 2018-Sep-25 07:32  m  13 19 12.717095 +01 15 10.76758
 2018-Sep-25 07:33  m  13 19 12.709112 +01 15 10.91606
 2018-Sep-25 07:34  m  13 19 12.701322 +01 15 11.06457
 2018-Sep-25 07:35  m  13 19 12.693722 +01 15 11.21309
 2018-Sep-25 07:36  m  13 19 12.686314 +01 15 11.36163
 2018-Sep-25 07:37  m  13 19 12.679095 +01 15 11.51018
 2018-Sep-25 07:38  m  13 19 12.672066 +01 15 11.65875
 2018-Sep-25 07:39  m  13 19 12.665226 +01 15 11.80735
 2018-Sep-25 07:40  m  13 19 12.658575 +01 15 11.95596
 2018-Sep-25 07:41  m  13 19 12.652111 +01 15 12.10459
 2018-Sep-25 07:42  m  13 19 12.645835 +01 15 12.25324
 2018-Sep-25 07:43  m  13 19 12.639745 +01 15 12.40190
 2018-Sep-25 07:44  m  13 19 12.633841 +01 15 12.55059
 2018-Sep-25 07:45  m  13 19 12.628124 +01 15 12.69930
 2018-Sep-25 07:46  m  13 19 12.622591 +01 15 12.84803
 2018-Sep-25 07:47  m  13 19 12.617242 +01 15 12.99677
 2018-Sep-25 07:48  m  13 19 12.612077 +01 15 13.14554
 2018-Sep-25 07:49  m  13 19 12.607095 +01 15 13.29433
 2018-Sep-25 07:50  m  13 19 12.602296 +01 15 13.44314
 2018-Sep-25 07:51  m  13 19 12.597679 +01 15 13.59197
 2018-Sep-25 07:52  m  13 19 12.593243 +01 15 13.74083
 2018-Sep-25 07:53  m  13 19 12.588987 +01 15 13.88970
 2018-Sep-25 07:54  m  13 19 12.584912 +01 15 14.03860
 2018-Sep-25 07:55  m  13 19 12.581016 +01 15 14.18752
 2018-Sep-25 07:56  m  13 19 12.577300 +01 15 14.33646
 2018-Sep-25 07:57  m  13 19 12.573761 +01 15 14.48542
 2018-Sep-25 07:58  m  13 19 12.570400 +01 15 14.63441
 2018-Sep-25 07:59  m  13 19 12.567216 +01 15 14.78342
 2018-Sep-25 08:00  m  13 19 12.564208 +01 15 14.93246
 2018-Sep-25 08:01  m  13 19 12.561375 +01 15 15.08152
 2018-Sep-25 08:02  m  13 19 12.558718 +01 15 15.23060
 2018-Sep-25 08:03  m  13 19 12.556235 +01 15 15.37971
 2018-Sep-25 08:04  m  13 19 12.553926 +01 15 15.52884
 2018-Sep-25 08:05  m  13 19 12.551790 +01 15 15.67799
 2018-Sep-25 08:06  m  13 19 12.549826 +01 15 15.82718
 2018-Sep-25 08:07  m  13 19 12.548034 +01 15 15.97638
 2018-Sep-25 08:08  m  13 19 12.546413 +01 15 16.12561
 2018-Sep-25 08:09  m  13 19 12.544963 +01 15 16.27487
 2018-Sep-25 08:10  m  13 19 12.543682 +01 15 16.42416
 2018-Sep-25 08:11  m  13 19 12.542570 +01 15 16.57347
 2018-Sep-25 08:12  m  13 19 12.541627 +01 15 16.72280
 2018-Sep-25 08:13  m  13 19 12.540851 +01 15 16.87216
 2018-Sep-25 08:14  m  13 19 12.540242 +01 15 17.02155
 2018-Sep-25 08:15  m  13 19 12.539800 +01 15 17.17097
 2018-Sep-25 08:16  m  13 19 12.539523 +01 15 17.32042
 2018-Sep-25 08:17  m  13 19 12.539411 +01 15 17.46989
 2018-Sep-25 08:18  m  13 19 12.539463 +01 15 17.61939
 2018-Sep-25 08:19  m  13 19 12.539679 +01 15 17.76891
 2018-Sep-25 08:20  m  13 19 12.540058 +01 15 17.91847
 2018-Sep-25 08:21  m  13 19 12.540599 +01 15 18.06805
 2018-Sep-25 08:22  m  13 19 12.541301 +01 15 18.21767
 2018-Sep-25 08:23  m  13 19 12.542164 +01 15 18.36731
 2018-Sep-25 08:24  m  13 19 12.543187 +01 15 18.51698
 2018-Sep-25 08:25  m  13 19 12.544369 +01 15 18.66668
 2018-Sep-25 08:26  m  13 19 12.545710 +01 15 18.81641
 2018-Sep-25 08:27  m  13 19 12.547209 +01 15 18.96617
 2018-Sep-25 08:28  m  13 19 12.548864 +01 15 19.11596
 2018-Sep-25 08:29  m  13 19 12.550676 +01 15 19.26578
 2018-Sep-25 08:30  m  13 19 12.552644 +01 15 19.41563
